{"spkid": "20613714", "covariance": {"epoch": "2457456.5", "labels": ["e", "q", "tp", "node", "peri", "i", "A2"], "data": [["4.782102140394362E-15", "-6.916803014132182E-15", "3.357251994671751E-13", "3.402973966816961E-13", "-8.004836107537268E-13", "-4.5389480526687E-15", "-1.277493181828122E-21"], ["-6.916803014132182E-15", "1.000684557371611E-14", "-4.88656205174871E-13", "-5.167449241804237E-13", "1.177388659487882E-12", "6.838073686436636E-15", "1.827834888902773E-21"], ["3.357251994671751E-13", "-4.88656205174871E-13", "1.420528803719144E-10", "2.601452394215447E-10", "-1.961189192138856E-10", "-6.714707985978829E-12", "-1.629673312801693E-19"], ["3.402973966816961E-13", "-5.167449241804237E-13", "2.601452394215447E-10", "1.17605818972158E-8", "-1.156358477373226E-8", "5.931498078682173E-10", "1.953878322774924E-19"], ["-8.004836107537268E-13", "1.177388659487882E-12", "-1.961189192138856E-10", "-1.156358477373226E-8", "1.149826578163983E-8", "-5.970747925920895E-10", "-8.53979555147697E-20"], ["-4.5389480526687E-15", "6.838073686436636E-15", "-6.714707985978829E-12", "5.931498078682173E-10", "-5.970747925920895E-10", "4.215000978070297E-11", "1.827632584040972E-20"], ["-1.277493181828122E-21", "1.827834888902773E-21", "-1.629673312801693E-19", "1.953878322774924E-19", "-8.53979555147697E-20", "1.827632584040972E-20", "9.803188246846679E-28"]], "elements": [{"label": "e", "name": "e", "sigma": 6.91527449953678e-08, "units": null, "title": "eccentricity", "value": ".4761513444183106"}, {"label": "q", "name": "q", "sigma": 1.0003422201285e-07, "units": "au", "title": "perihelion distance", "value": ".7631489537348055"}, {"label": "tp", "units": "TDB", "value": "2457520.477469522518", "title": "time of perihelion passage", "name": "tp", "sigma": 1.19185938923983e-05}, {"label": "node", "name": "om", "sigma": 0.000108446216610889, "title": "longitude of the ascending node", "value": "150.8074678344238", "units": "deg"}, {"label": "peri", "title": "argument of perihelion", "value": "140.1235376210288", "units": "deg", "sigma": 0.000107229966807977, "name": "w"}, {"label": "i", "title": "inclination", "value": "4.66567129682814", "units": "deg", "sigma": 6.49230388850545e-06, "name": "i"}]}, "elements": [{"label": "e", "sigma": "6.9059E-8", "name": "e", "title": "eccentricity", "value": ".4765305374346481", "units": null}, {"units": "au", "title": "semi-major axis", "value": "1.457408730822197", "name": "a", "sigma": "1.1905E-8", "label": "a"}, {"label": "q", "value": ".7629089650615473", "title": "perihelion distance", "units": "au", "sigma": "1.0368E-7", "name": "q"}, {"label": "i", "title": "inclination; angle with respect to x-y ecliptic plane", "value": "4.674715995865939", "units": "deg", "sigma": "6.4832E-6", "name": "i"}, {"name": "om", "sigma": ".0001083", "units": "deg", "title": "longitude of the ascending node", "value": "150.6820641245011", "label": "node"}, {"sigma": ".00010714", "name": "w", "title": "argument of perihelion", "value": "140.3160411884611", "units": "deg", "label": "peri"}, {"title": "mean anomaly", "value": "262.0516118344755", "units": "deg", "name": "ma", "sigma": "1.1588E-5", "label": "M"}, {"units": "TDB", "title": "time of perihelion passage", "value": "2461375.349852432235", "name": "tp", "sigma": "2.2479E-5", "label": "tp"}, {"sigma": "7.8743E-6", "name": "per", "value": "642.6440297233999", "title": "sidereal orbital period", "units": "d", "label": "period"}, {"label": "n", "units": "deg/d", "title": "mean motion", "value": ".5601857067822562", "sigma": "6.8639E-9", "name": "n"}, {"sigma": "1.7578E-8", "name": "ad", "value": "2.151908496582847", "title": "aphelion distance", "units": "au", "label": "Q"}], "epoch": "2461200.5"}